STARLINK-36140          
1 67034U 25294E   26004.25002315  .00018220  00000+0  44275-3 0  9999
2 67034  43.0005  46.9551 0000787 272.8451 201.1869 15.40675048  3713
STARLINK-36085          
1 67035U 25294F   26003.50655291  .00180272  00000+0  30030-2 0  9994
2 67035  43.0000  51.1034 0001445 278.9733  81.0964 15.50629302  4776
STARLINK-36125          
1 67036U 25294G   26004.47312325  .00093266  00000+0  15751-2 0  9999
2 67036  43.0018  45.4566 0002427 281.5976  78.4612 15.50606384  4924
STARLINK-35732          
1 67037U 25294H   26004.47245047  .00116171  00000+0  19505-2 0  9998
2 67037  42.9997  45.4495 0002119  37.8541 322.2468 15.50668675  4928
STARLINK-35775          
1 67038U 25294J   26003.50586830  .00123223  00000+0  20713-2 0  9999
2 67038  42.9999  51.0975 0001133 276.9652  83.1079 15.50607066  4783
STARLINK-35705          
1 67039U 25294K   26003.56959445  .00112502  00000+0  18932-2 0  9990
2 67039  43.0007  50.7144 0001143 274.7971  85.2759 15.50621565  4789
STARLINK-35786          
1 67040U 25294L   26004.50003471  .00085386  00000+0  20320-2 0  9999
2 67040  43.0004  45.4539 0001333 285.8795 161.3206 15.40648248  3750
STARLINK-35765          
1 67041U 25294M   26004.14899082  .00156644  00000+0  26161-2 0  9996
2 67041  42.9996  47.3217 0001392 234.9785 125.0945 15.50650656  4870
STARLINK-35773          
1 67042U 25294N   26004.50003471  .00094851  00000+0  22556-2 0  9991
2 67042  43.0000  45.3619 0001013 276.5701 208.0445 15.40621882  3945
STARLINK-35901          
1 67043U 25294P   26004.47039071  .00119212  00000+0  20006-2 0  9990
2 67043  42.9996  45.4328 0001620  29.8052 330.2900 15.50670279  4926
STARLINK-35884          
1 67044U 25294Q   26004.50003471  .00081760  00000+0  19471-2 0  9990
2 67044  43.0011  45.5735 0000923 286.4217 111.0525 15.40646666  3940
STARLINK-35891          
1 67045U 25294R   26004.46969174  .00086844  00000+0  14704-2 0  9999
2 67045  42.9995  45.4270 0001580 268.3508  91.7171 15.50567221  4925
