CCSDS_OMM_VERS = 2.0
CREATION_DATE  = 
ORIGINATOR     = 

OBJECT_NAME    = STARLINK-36140
OBJECT_ID      = 2025-294E
CENTER_NAME    = EARTH
REF_FRAME      = TEME
TIME_SYSTEM    = UTC
MEAN_ELEMENT_THEORY = SGP/SGP4

EPOCH          = 2026-01-04T06:00:02.000160
MEAN_MOTION    = 15.40675048
ECCENTRICITY   = .00007876
INCLINATION    = 43.0005
RA_OF_ASC_NODE = 46.9551
ARG_OF_PERICENTER = 272.8451
MEAN_ANOMALY   = 201.1869

EPHEMERIS_TYPE = 0
CLASSIFICATION_TYPE = U
NORAD_CAT_ID   = 67034
ELEMENT_SET_NO = 999
REV_AT_EPOCH   = 371
BSTAR          = .44275215E-3
MEAN_MOTION_DOT = .1822E-3
MEAN_MOTION_DDOT = 0

CCSDS_OMM_VERS = 2.0
CREATION_DATE  = 
ORIGINATOR     = 

OBJECT_NAME    = STARLINK-36085
OBJECT_ID      = 2025-294F
CENTER_NAME    = EARTH
REF_FRAME      = TEME
TIME_SYSTEM    = UTC
MEAN_ELEMENT_THEORY = SGP/SGP4

EPOCH          = 2026-01-03T12:09:26.171424
MEAN_MOTION    = 15.50629302
ECCENTRICITY   = .0001445
INCLINATION    = 43.0000
RA_OF_ASC_NODE = 51.1034
ARG_OF_PERICENTER = 278.9733
MEAN_ANOMALY   = 81.0964

EPHEMERIS_TYPE = 0
CLASSIFICATION_TYPE = U
NORAD_CAT_ID   = 67035
ELEMENT_SET_NO = 999
REV_AT_EPOCH   = 477
BSTAR          = .30030462E-2
MEAN_MOTION_DOT = .180272E-2
MEAN_MOTION_DDOT = 0

CCSDS_OMM_VERS = 2.0
CREATION_DATE  = 
ORIGINATOR     = 

OBJECT_NAME    = STARLINK-36125
OBJECT_ID      = 2025-294G
CENTER_NAME    = EARTH
REF_FRAME      = TEME
TIME_SYSTEM    = UTC
MEAN_ELEMENT_THEORY = SGP/SGP4

EPOCH          = 2026-01-04T11:21:17.848800
MEAN_MOTION    = 15.50606384
ECCENTRICITY   = .0002427
INCLINATION    = 43.0018
RA_OF_ASC_NODE = 45.4566
ARG_OF_PERICENTER = 281.5976
MEAN_ANOMALY   = 78.4612

EPHEMERIS_TYPE = 0
CLASSIFICATION_TYPE = U
NORAD_CAT_ID   = 67036
ELEMENT_SET_NO = 999
REV_AT_EPOCH   = 492
BSTAR          = .15751E-2
MEAN_MOTION_DOT = .93266E-3
MEAN_MOTION_DDOT = 0

CCSDS_OMM_VERS = 2.0
CREATION_DATE  = 
ORIGINATOR     = 

OBJECT_NAME    = STARLINK-35732
OBJECT_ID      = 2025-294H
CENTER_NAME    = EARTH
REF_FRAME      = TEME
TIME_SYSTEM    = UTC
MEAN_ELEMENT_THEORY = SGP/SGP4

EPOCH          = 2026-01-04T11:20:19.720608
MEAN_MOTION    = 15.50668675
ECCENTRICITY   = .0002119
INCLINATION    = 42.9997
RA_OF_ASC_NODE = 45.4495
ARG_OF_PERICENTER = 37.8541
MEAN_ANOMALY   = 322.2468

EPHEMERIS_TYPE = 0
CLASSIFICATION_TYPE = U
NORAD_CAT_ID   = 67037
ELEMENT_SET_NO = 999
REV_AT_EPOCH   = 492
BSTAR          = .19505E-2
MEAN_MOTION_DOT = .116171E-2
MEAN_MOTION_DDOT = 0

CCSDS_OMM_VERS = 2.0
CREATION_DATE  = 
ORIGINATOR     = 

OBJECT_NAME    = STARLINK-35775
OBJECT_ID      = 2025-294J
CENTER_NAME    = EARTH
REF_FRAME      = TEME
TIME_SYSTEM    = UTC
MEAN_ELEMENT_THEORY = SGP/SGP4

EPOCH          = 2026-01-03T12:08:27.021120
MEAN_MOTION    = 15.50607066
ECCENTRICITY   = .00011335
INCLINATION    = 42.9999
RA_OF_ASC_NODE = 51.0975
ARG_OF_PERICENTER = 276.9652
MEAN_ANOMALY   = 83.1079

EPHEMERIS_TYPE = 0
CLASSIFICATION_TYPE = U
NORAD_CAT_ID   = 67038
ELEMENT_SET_NO = 999
REV_AT_EPOCH   = 478
BSTAR          = .20712677E-2
MEAN_MOTION_DOT = .123223E-2
MEAN_MOTION_DDOT = 0

CCSDS_OMM_VERS = 2.0
CREATION_DATE  = 
ORIGINATOR     = 

OBJECT_NAME    = STARLINK-35705
OBJECT_ID      = 2025-294K
CENTER_NAME    = EARTH
REF_FRAME      = TEME
TIME_SYSTEM    = UTC
MEAN_ELEMENT_THEORY = SGP/SGP4

EPOCH          = 2026-01-03T13:40:12.960480
MEAN_MOTION    = 15.50621565
ECCENTRICITY   = .00011438
INCLINATION    = 43.0007
RA_OF_ASC_NODE = 50.7144
ARG_OF_PERICENTER = 274.7971
MEAN_ANOMALY   = 85.2759

EPHEMERIS_TYPE = 0
CLASSIFICATION_TYPE = U
NORAD_CAT_ID   = 67039
ELEMENT_SET_NO = 999
REV_AT_EPOCH   = 478
BSTAR          = .1893189E-2
MEAN_MOTION_DOT = .112502E-2
MEAN_MOTION_DDOT = 0

CCSDS_OMM_VERS = 2.0
CREATION_DATE  = 
ORIGINATOR     = 

OBJECT_NAME    = STARLINK-35786
OBJECT_ID      = 2025-294L
CENTER_NAME    = EARTH
REF_FRAME      = TEME
TIME_SYSTEM    = UTC
MEAN_ELEMENT_THEORY = SGP/SGP4

EPOCH          = 2026-01-04T12:00:02.998944
MEAN_MOTION    = 15.40648248
ECCENTRICITY   = .0001333
INCLINATION    = 43.0004
RA_OF_ASC_NODE = 45.4539
ARG_OF_PERICENTER = 285.8795
MEAN_ANOMALY   = 161.3206

EPHEMERIS_TYPE = 0
CLASSIFICATION_TYPE = U
NORAD_CAT_ID   = 67040
ELEMENT_SET_NO = 999
REV_AT_EPOCH   = 375
BSTAR          = .2032E-2
MEAN_MOTION_DOT = .85386E-3
MEAN_MOTION_DDOT = 0

CCSDS_OMM_VERS = 2.0
CREATION_DATE  = 
ORIGINATOR     = 

OBJECT_NAME    = STARLINK-35765
OBJECT_ID      = 2025-294M
CENTER_NAME    = EARTH
REF_FRAME      = TEME
TIME_SYSTEM    = UTC
MEAN_ELEMENT_THEORY = SGP/SGP4

EPOCH          = 2026-01-04T03:34:32.806848
MEAN_MOTION    = 15.50650656
ECCENTRICITY   = .0001392
INCLINATION    = 42.9996
RA_OF_ASC_NODE = 47.3217
ARG_OF_PERICENTER = 234.9785
MEAN_ANOMALY   = 125.0945

EPHEMERIS_TYPE = 0
CLASSIFICATION_TYPE = U
NORAD_CAT_ID   = 67041
ELEMENT_SET_NO = 999
REV_AT_EPOCH   = 487
BSTAR          = .26161454E-2
MEAN_MOTION_DOT = .156644E-2
MEAN_MOTION_DDOT = 0

CCSDS_OMM_VERS = 2.0
CREATION_DATE  = 
ORIGINATOR     = 

OBJECT_NAME    = STARLINK-35773
OBJECT_ID      = 2025-294N
CENTER_NAME    = EARTH
REF_FRAME      = TEME
TIME_SYSTEM    = UTC
MEAN_ELEMENT_THEORY = SGP/SGP4

EPOCH          = 2026-01-04T12:00:02.998944
MEAN_MOTION    = 15.40621882
ECCENTRICITY   = .0001013
INCLINATION    = 43.0000
RA_OF_ASC_NODE = 45.3619
ARG_OF_PERICENTER = 276.5701
MEAN_ANOMALY   = 208.0445

EPHEMERIS_TYPE = 0
CLASSIFICATION_TYPE = U
NORAD_CAT_ID   = 67042
ELEMENT_SET_NO = 999
REV_AT_EPOCH   = 394
BSTAR          = .22556E-2
MEAN_MOTION_DOT = .94851E-3
MEAN_MOTION_DDOT = 0

CCSDS_OMM_VERS = 2.0
CREATION_DATE  = 
ORIGINATOR     = 

OBJECT_NAME    = STARLINK-35901
OBJECT_ID      = 2025-294P
CENTER_NAME    = EARTH
REF_FRAME      = TEME
TIME_SYSTEM    = UTC
MEAN_ELEMENT_THEORY = SGP/SGP4

EPOCH          = 2026-01-04T11:17:21.757344
MEAN_MOTION    = 15.50670279
ECCENTRICITY   = .000162
INCLINATION    = 42.9996
RA_OF_ASC_NODE = 45.4328
ARG_OF_PERICENTER = 29.8052
MEAN_ANOMALY   = 330.2900

EPHEMERIS_TYPE = 0
CLASSIFICATION_TYPE = U
NORAD_CAT_ID   = 67043
ELEMENT_SET_NO = 999
REV_AT_EPOCH   = 492
BSTAR          = .20006E-2
MEAN_MOTION_DOT = .119212E-2
MEAN_MOTION_DDOT = 0

CCSDS_OMM_VERS = 2.0
CREATION_DATE  = 
ORIGINATOR     = 

OBJECT_NAME    = STARLINK-35884
OBJECT_ID      = 2025-294Q
CENTER_NAME    = EARTH
REF_FRAME      = TEME
TIME_SYSTEM    = UTC
MEAN_ELEMENT_THEORY = SGP/SGP4

EPOCH          = 2026-01-04T12:00:02.998944
MEAN_MOTION    = 15.40646666
ECCENTRICITY   = .0000923
INCLINATION    = 43.0011
RA_OF_ASC_NODE = 45.5735
ARG_OF_PERICENTER = 286.4217
MEAN_ANOMALY   = 111.0525

EPHEMERIS_TYPE = 0
CLASSIFICATION_TYPE = U
NORAD_CAT_ID   = 67044
ELEMENT_SET_NO = 999
REV_AT_EPOCH   = 394
BSTAR          = .19471E-2
MEAN_MOTION_DOT = .8176E-3
MEAN_MOTION_DDOT = 0

CCSDS_OMM_VERS = 2.0
CREATION_DATE  = 
ORIGINATOR     = 

OBJECT_NAME    = STARLINK-35891
OBJECT_ID      = 2025-294R
CENTER_NAME    = EARTH
REF_FRAME      = TEME
TIME_SYSTEM    = UTC
MEAN_ELEMENT_THEORY = SGP/SGP4

EPOCH          = 2026-01-04T11:16:21.366336
MEAN_MOTION    = 15.50567221
ECCENTRICITY   = .000158
INCLINATION    = 42.9995
RA_OF_ASC_NODE = 45.4270
ARG_OF_PERICENTER = 268.3508
MEAN_ANOMALY   = 91.7171

EPHEMERIS_TYPE = 0
CLASSIFICATION_TYPE = U
NORAD_CAT_ID   = 67045
ELEMENT_SET_NO = 999
REV_AT_EPOCH   = 492
BSTAR          = .14704E-2
MEAN_MOTION_DOT = .86844E-3
MEAN_MOTION_DDOT = 0

